SL-16 R/B               
1 19120U 88039B   15354.16747538  .00000106  00000-0  73253-4 0  9991
2 19120  71.0154  36.4889 0023975 300.5837  59.2923 14.19130573429068
COSMOS 1953             
1 19210U 88050A   15354.80047496  .00001671  00000-0  11755-3 0  9997
2 19210  82.5172 200.8715 0013041 321.3364  38.6928 15.04384124495965
SL-8 R/B                
1 19257U 88053B   15354.86774853  .00000083  00000-0  36454-4 0  9991
2 19257  74.0484 137.1520 0020125 165.9019 304.6677 14.37271051440566
COSMOS 1975             
1 19573U 88093A   15354.51558538  .00002236  00000-0  16270-3 0  9993
2 19573  82.5198 152.1502 0014735 358.2265   1.8906 15.03271028477952
SL-14 R/B               
1 19574U 88093B   15354.82565657  .00000275  00000-0  30695-4 0  9997
2 19574  82.5329 293.9606 0023200 109.7565 280.5633 14.83094851468763
SL-16 R/B               
1 19650U 88102B   15354.18596169 -.00000418  00000-0 -18814-3 0  9993
2 19650  70.9995  81.0556 0016561 288.5990  71.3334 14.15727294398853
INTERCOSMOS 24          
1 20261U 89080A   15354.62429846  .00000524  00000-0  15810-3 0  9994
2 20261  82.5934   2.6626 1204240 272.4214  73.9856 12.55675122197619
SL-14 R/B               
1 20262U 89080C   15355.19780887  .00000197  00000-0  51064-4 0  9991
2 20262  82.5943  44.4816 1238478  56.7202 314.6437 12.48764874193829
DELTA 1 R/B             
1 20323U 89089B   15354.64689699  .00000174  00000-0  54450-4 0  9993
2 20323  97.0708  17.4104 0071786 355.4009   4.6519 14.48065796375915
DELTA 2 R/B(1)          
1 20453U 90008B   15354.85164778  .00003271  00000-0  19419-3 0  9995
2 20453  35.6251 183.0128 0300045 328.3341  29.9632 14.80429621367405
COSMOS 2058             
1 20465U 90010A   15354.62371279  .00001106  00000-0  93948-4 0  9997
2 20465  82.4906  51.2379 0014927 333.1591  26.8857 14.96902798403854
SL-14 R/B               
1 20466U 90010B   15354.83121903  .00000266  00000-0  31154-4 0  9995
2 20466  82.5020 161.8995 0019811 330.0344  29.9734 14.81165086396915
SL-14 R/B               
1 20511U 90018B   15354.82717273  .00000237  00000-0  28220-4 0  9992
2 20511  82.5240 101.0167 0019040  97.7087  19.9368 14.79829636391554
HST                     
1 20580U 90037B   15354.75769676  .00001869  00000-0  10717-3 0  9998
2 20580  28.4712   3.3393 0003076  83.3219 254.6019 15.07995864207992
SL-16 R/B               
1 20625U 90046B   15354.18532698  .00000246  00000-0  15249-3 0  9990
2 20625  70.9977 212.9578 0015739 221.1533 277.9178 14.14586943320766
COSMOS 2084             
1 20663U 90055A   15355.15672235  .00001311  00000-0  13758-3 0  9999
2 20663  62.7935 242.9999 0104999  34.5210 326.2643 14.90905801378676
SL-6 R/B(2)             
1 20666U 90055D   15354.48130377  .00000747  00000-0  83058-4 0  9996
2 20666  62.7831 165.6555 0121901  55.2194 306.0300 14.91292365379926
SL-8 R/B                
1 20775U 90078B   15354.81859448  .00013496  00000-0  70017-3 0  9991
2 20775  82.9301 133.2243 0604947 214.8668 141.1467 14.26541110271020
SL-8 R/B                
1 21088U 91006B   15354.32381801  .00000060  00000-0  44891-4 0  9995
2 21088  82.9434  65.2749 0023469  48.2929  19.2828 13.77015621250619
OKEAN-3                 
1 21397U 91039A   15354.85428780  .00001179  00000-0  11368-3 0  9994
2 21397  82.5227 295.2874 0016488 256.5616 103.3766 14.91970295328607
COSMOS 2151             
1 21422U 91042A   15354.50876633  .00000771  00000-0  74503-4 0  9991
2 21422  82.5010  44.6483 0013178 317.2761  42.7433 14.91454541327301
SL-14 R/B               
1 21423U 91042B   15354.81424972  .00000272  00000-0  33282-4 0  9996
2 21423  82.4947 110.0998 0016538 230.3711 129.6043 14.79582944322089
ERS-1                   
1 21574U 91050A   15354.88795019  .00000249  00000-0  97002-4 0  9996
2 21574  98.3924 301.8907 0033741 140.1079 220.2597 14.37423805279398
ARIANE 40 R/B           
1 21610U 91050F   15354.14650873  .00000121  00000-0  52270-4 0  9991
2 21610  98.6819  33.9996 0004126 122.4812 302.5515 14.40683515281633
INTERCOSMOS 25          
1 21819U 91086A   15354.55586918  .00001252  00000-0  23902-3 0  9999
2 21819  82.5548  30.3913 1527891 165.2765 199.8553 12.03950159 46723
SL-14 R/B               
1 21820U 91086B   15354.74712354  .00000299  00000-0  58957-4 0  9996
2 21820  82.5628  79.6002 1577583 332.1290  20.3224 11.93065528 41857
SL-8 R/B                
1 21876U 92008B   15354.11170189 -.00000004  00000-0 -19904-4 0  9992
2 21876  82.9255 162.3069 0035844 115.1344  22.3260 13.75570144196443
SL-8 R/B                
1 21938U 92020B   15354.19204519  .00000016  00000-0  14908-5 0  9999
2 21938  82.9305  45.0750 0027784 272.6324 140.0071 13.75234725188387
SL-16 R/B               
1 22220U 92076B   15354.11812352 -.00000009  00000-0  19314-4 0  9995
2 22220  71.0002 126.5597 0012182  13.0108  39.4966 14.16387618193591
SL-16 R/B               
1 22285U 92093B   15354.19554026  .00000088  00000-0  70073-4 0  9999
2 22285  71.0220 275.5201 0006316 247.7494 112.2959 14.14981431185445
COSMOS 2228             
1 22286U 92094A   15354.51210785  .00000986  00000-0  10626-3 0  9992
2 22286  82.5200 167.5001 0021825 126.8666 233.4557 14.87256778241520
SL-16 R/B               
1 22566U 93016B   15354.84932651  .00000286  00000-0  17257-3 0  9997
2 22566  71.0071 129.4911 0012346 246.0616 113.9214 14.14917120174279
COSMOS 2242             
1 22626U 93024A   15354.53222007  .00000800  00000-0  85671-4 0  9994
2 22626  82.5211 195.1456 0020312 125.7474 234.5636 14.87269732225184
SL-16 R/B               
1 22803U 93059B   15355.14310749  .00000195  00000-0  12131-3 0  9995
2 22803  70.9909 315.8265 0015657 140.5118 219.7149 14.16729167151223
ARIANE 40 R/B           
1 22830U 93061H   15355.10203323  .00000108  00000-0  58259-4 0  9999
2 22830  98.8783 346.9795 0011906  77.6047 329.2351 14.31388698160419
COSMOS 2278             
1 23087U 94023A   15354.61239373  .00000004  00000-0  26855-4 0  9994
2 23087  71.0531  57.1205 0010173 314.4835 151.0236 14.13691183117531
SL-16 R/B               
1 23088U 94023B   15354.16851994  .00000279  00000-0  16998-3 0  9994
2 23088  70.9995 345.9567 0004888 230.4197 129.6494 14.14630639118467
SL-16 R/B               
1 23343U 94074B   15354.55416605  .00000196  00000-0  35813-4 0  9999
2 23343  98.2089  13.2364 0007454  27.8800  86.0713 14.76613562136452
SL-16 R/B               
1 23405U 94077B   15355.15870181 -.00000223  00000-0 -90344-4 0  9994
2 23405  70.9843 279.1992 0001090 350.0650  10.0450 14.15173082 88542
ERS-2                   
1 23560U 95021A   15354.08140368  .00004748  00000-0  24142-3 0  9990
2 23560  98.5072 265.4456 0004197  14.1360 345.9987 15.17433264 92616
ARIANE 40+ R/B          
1 23561U 95021B   15354.91182222  .00000222  00000-0  89258-4 0  9991
2 23561  98.7522 333.6796 0008017  72.0598 317.4331 14.37681891 83041
SL-16 R/B               
1 23705U 95058B   15353.73919529  .00000162  00000-0  10782-3 0  9996
2 23705  71.0234  93.3890 0010918  41.2220 318.9725 14.15080884 40028
SL-16 R/B               
1 24298U 96051B   15353.97699980 -.00000025  00000-0  13055-4 0  9996
2 24298  70.8345 131.4213 0019033 269.6006  90.2933 14.12388079994836
ORBVIEW 2 (SEASTAR)     
1 24883U 97037A   15354.34178327  .00000187  00000-0  83787-4 0  9997
2 24883  98.5125 100.2401 0001253 282.5524  77.5520 14.33265280973856
SL-16 R/B               
1 25400U 98043G   15353.99993718  .00000039  00000-0  34349-4 0  9996
2 25400  98.4127 310.9795 0011021  91.7719 268.4724 14.25361970907408
SL-16 R/B               
1 25407U 98045B   15353.76478223 -.00000112  00000-0 -32684-4 0  9993
2 25407  71.0124 107.5917 0009701 307.3644  52.6595 14.15735792898987
ISS (ZARYA)             
1 25544U 98067A   15355.13133534  .00018357  00000-0  27491-3 0  9992
2 25544  51.6438 231.1133 0008100 305.0563 214.8814 15.54985591977120
SL-8 R/B                
1 25723U 99022C   15354.63722448  .00015014  00000-0  32167-3 0  9998
2 25723  48.4181 172.5818 0013808 295.5608 103.6349 15.44774606922029
CZ-4B R/B               
1 25732U 99025C   15354.52037492  .00000042  00000-0  42988-4 0  9995
2 25732  98.9577 339.5500 0037001 200.5769 266.2459 14.17592532859466
OKEAN-O                 
1 25860U 99039A   15354.04587980  .00000452  00000-0  72893-4 0  9994
2 25860  98.1202 322.6847 0001911  88.9065 313.0346 14.76232992883403
SL-16 R/B               
1 25861U 99039B   15353.97094728  .00000258  00000-0  42804-4 0  9992
2 25861  98.0283 313.2712 0016636  42.2779 358.2590 14.78243579885223
TERRA                   
1 25994U 99068A   15355.06768915 -.00004953  00000-0 -10908-2 0  9995
2 25994  98.2073  66.9329 0001058  68.9893 291.1571 14.57079426851434
SL-14 R/B               
1 26874U 01032B   15355.15134236  .00037566  00000-0  28359-3 0  9994
2 26874  82.4632 116.6720 0009124 157.7490 202.4171 15.72228750807434
ENVISAT                 
1 27386U 02009A   15355.14306412 -.00000177  00000-0 -44692-4 0  9993
2 27386  98.3086  49.7338 0001139  92.8616 267.2674 14.37846505722897
IDEFIX & ARIANE 42P R/B 
1 27422U 02021B   15354.50266184  .00000065  00000-0  41433-4 0  9992
2 27422  98.2417  13.8601 0013243  55.0109 305.2315 14.29223866708874
AQUA                    
1 27424U 02022A   15354.22132760  .00000413  00000-0  10174-3 0  9990
2 27424  98.2152 292.3474 0001666  60.1731  82.3001 14.57101993724913
CZ-4B R/B               
1 27432U 02024C   15354.03547032  .00000035  00000-0  41397-4 0  9994
2 27432  98.9111 315.8350 0051174 135.5814 266.3731 14.13997060701757
MIDORI II (ADEOS-II)    
1 27597U 02056A   15354.49111443  .00000183  00000-0  91581-4 0  9998
2 27597  98.3030 338.4209 0001984 108.2293   1.0250 14.27160943677725
H-2A R/B                
1 27601U 02056E   15355.20260172  .00000145  00000-0  68140-4 0  9991
2 27601  98.4386  68.9084 0073345 106.8215 306.6798 14.31670323679973
